[{"OBJECT_NAME":"TEVEL2-3","OBJECT_ID":"2025-052J","EPOCH":"2026-03-09T15:29:22.754400","MEAN_MOTION":15.30377031,"ECCENTRICITY":0.0004761,"INCLINATION":97.3994,"RA_OF_ASC_NODE":324.7775,"ARG_OF_PERICENTER":105.7353,"MEAN_ANOMALY":254.4413,"EPHEMERIS_TYPE":0,"CLASSIFICATION_TYPE":"U","NORAD_CAT_ID":63218,"ELEMENT_SET_NO":999,"REV_AT_EPOCH":5485,"BSTAR":0.00069446,"MEAN_MOTION_DOT":0.00020365,"MEAN_MOTION_DDOT":0},{"OBJECT_NAME":"STARLINK-35535","OBJECT_ID":"2025-253Z","EPOCH":"2026-03-09T10:18:08.145216","MEAN_MOTION":15.27599353,"ECCENTRICITY":0.00034743,"INCLINATION":42.9996,"RA_OF_ASC_NODE":214.0608,"ARG_OF_PERICENTER":290.0123,"MEAN_ANOMALY":70.0355,"EPHEMERIS_TYPE":0,"CLASSIFICATION_TYPE":"U","NORAD_CAT_ID":66342,"ELEMENT_SET_NO":999,"REV_AT_EPOCH":2020,"BSTAR":0.0015501962,"MEAN_MOTION_DOT":0.00042673,"MEAN_MOTION_DDOT":0}]
