TEVEL2-3                
1 63218U 25052J   26068.64540225  .00020365  00000+0  69446-3 0  9991
2 63218  97.3994 324.7775 0004761 105.7353 254.4413 15.30377031 54855
STARLINK-35535          
1 66342U 25253Z   26068.42926094  .00042673  00000+0  15502-2 0  9992
2 66342  42.9996 214.0608 0003474 290.0123  70.0355 15.27599353 20201
